     3.03           N                                       RINEX VERSION / TYPE
MergeRinexNaviV1.0 Test and Assessment Research Center,CSNO PGM / RUN BY / DATE
BROADCAST EPH FROM BDS B1I AND B3I SIGNALS                  COMMENT
BDSA   0.1024E-07  0.4470E-07 -0.5364E-06  0.8941E-06 a C25 IONOSPHERIC CORR
BDSB   0.1556E+06 -0.1278E+07  0.6685E+07 -0.4260E+07 a C25 IONOSPHERIC CORR
BDSA   0.1024E-07  0.3725E-07 -0.5364E-06  0.8941E-06 b C23 IONOSPHERIC CORR
BDSB   0.1434E+06 -0.1147E+07  0.6226E+07 -0.3998E+07 b C23 IONOSPHERIC CORR
BDSA   0.1024E-07  0.3725E-07 -0.5364E-06  0.8941E-06 c C42 IONOSPHERIC CORR
BDSB   0.1434E+06 -0.1147E+07  0.6226E+07 -0.3998E+07 c C42 IONOSPHERIC CORR
BDSA   0.1211E-07 -0.7451E-08 -0.2980E-06  0.5960E-06 d C37 IONOSPHERIC CORR
BDSB   0.1270E+06 -0.8028E+06  0.4784E+07 -0.3277E+07 d C37 IONOSPHERIC CORR
BDSA   0.1211E-07 -0.7451E-08 -0.2980E-06  0.5960E-06 e C40 IONOSPHERIC CORR
BDSB   0.1270E+06 -0.8028E+06  0.4784E+07 -0.3277E+07 e C40 IONOSPHERIC CORR
BDSA   0.1211E-07 -0.7451E-08 -0.2980E-06  0.5960E-06 f C46 IONOSPHERIC CORR
BDSB   0.1270E+06 -0.8028E+06  0.4719E+07 -0.3146E+07 f C46 IONOSPHERIC CORR
BDSA   0.1211E-07 -0.7451E-08 -0.2980E-06  0.5960E-06 g C43 IONOSPHERIC CORR
BDSB   0.1270E+06 -0.8028E+06  0.4719E+07 -0.3146E+07 g C43 IONOSPHERIC CORR
BDSA   0.1211E-07 -0.7451E-08 -0.2980E-06  0.5960E-06 h C01 IONOSPHERIC CORR
BDSB   0.1211E-07 -0.7451E-08 -0.2980E-06  0.5960E-06 h C01 IONOSPHERIC CORR
BDSA   0.1211E-07 -0.7451E-08 -0.2980E-06  0.5960E-06 i C36 IONOSPHERIC CORR
BDSB   0.1311E+06 -0.8520E+06  0.4587E+07 -0.2884E+07 i C36 IONOSPHERIC CORR
BDSA   0.1211E-07 -0.7451E-08 -0.2980E-06  0.5960E-06 j C30 IONOSPHERIC CORR
BDSB   0.1311E+06 -0.9830E+06  0.6160E+07 -0.4194E+07 j C30 IONOSPHERIC CORR
BDSA   0.1211E-07 -0.7451E-08 -0.2980E-06  0.5960E-06 k C20 IONOSPHERIC CORR
BDSB   0.1311E+06 -0.9830E+06  0.6160E+07 -0.4194E+07 k C20 IONOSPHERIC CORR
BDS1   0.1062E+02 -0.2250E+01  0.3750E+01             a C25 IONOSPHERIC CORR
BDS2   0.2125E+01 -0.2875E+01 -0.3750E+00             a C25 IONOSPHERIC CORR
BDS3  -0.5000E+00  0.1125E+01  0.1250E+00             a C25 IONOSPHERIC CORR
BDS1   0.1062E+02 -0.2250E+01  0.3750E+01             b C32 IONOSPHERIC CORR
BDS2   0.2125E+01 -0.3000E+01 -0.5000E+00             b C32 IONOSPHERIC CORR
BDS3  -0.5000E+00  0.1000E+01  0.2500E+00             b C32 IONOSPHERIC CORR
BDS1   0.1062E+02 -0.2250E+01  0.3750E+01             c C23 IONOSPHERIC CORR
BDS2   0.2125E+01 -0.3000E+01 -0.5000E+00             c C23 IONOSPHERIC CORR
BDS3  -0.5000E+00  0.1000E+01  0.2500E+00             c C23 IONOSPHERIC CORR
BDS1   0.1062E+02 -0.2125E+01  0.3750E+01             d C24 IONOSPHERIC CORR
BDS2   0.2000E+01 -0.3125E+01 -0.5000E+00             d C24 IONOSPHERIC CORR
BDS3  -0.6250E+00  0.8750E+00  0.2500E+00             d C24 IONOSPHERIC CORR
BDS1   0.1062E+02 -0.2125E+01  0.3750E+01             e C38 IONOSPHERIC CORR
BDS2   0.2000E+01 -0.3125E+01 -0.5000E+00             e C38 IONOSPHERIC CORR
BDS3  -0.6250E+00  0.8750E+00  0.2500E+00             e C38 IONOSPHERIC CORR
BDS1   0.1062E+02 -0.2125E+01  0.3750E+01             f C46 IONOSPHERIC CORR
BDS2   0.1875E+01 -0.3125E+01 -0.3750E+00             f C46 IONOSPHERIC CORR
BDS3  -0.6250E+00  0.8750E+00  0.1250E+00             f C46 IONOSPHERIC CORR
BDS1   0.1062E+02 -0.2125E+01  0.3750E+01             g C19 IONOSPHERIC CORR
BDS2   0.1875E+01 -0.3125E+01 -0.3750E+00             g C19 IONOSPHERIC CORR
BDS3  -0.6250E+00  0.8750E+00  0.1250E+00             g C19 IONOSPHERIC CORR
BDS1   0.1062E+02 -0.2000E+01  0.3750E+01             h C28 IONOSPHERIC CORR
BDS2   0.1875E+01 -0.3125E+01 -0.3750E+00             h C28 IONOSPHERIC CORR
BDS3  -0.6250E+00  0.8750E+00  0.1250E+00             h C28 IONOSPHERIC CORR
BDS1   0.1062E+02 -0.2000E+01  0.3750E+01             i C23 IONOSPHERIC CORR
BDS2   0.1875E+01 -0.3125E+01 -0.3750E+00             i C23 IONOSPHERIC CORR
BDS3  -0.6250E+00  0.8750E+00  0.1250E+00             i C23 IONOSPHERIC CORR
BDS1   0.1062E+02 -0.2000E+01  0.3750E+01             j C42 IONOSPHERIC CORR
BDS2   0.1875E+01 -0.3125E+01 -0.5000E+00             j C42 IONOSPHERIC CORR
BDS3  -0.6250E+00  0.8750E+00  0.1250E+00             j C42 IONOSPHERIC CORR
BDS1   0.1062E+02 -0.2000E+01  0.3750E+01             k C22 IONOSPHERIC CORR
BDS2   0.1875E+01 -0.3125E+01 -0.5000E+00             k C22 IONOSPHERIC CORR
BDS3  -0.6250E+00  0.8750E+00  0.1250E+00             k C22 IONOSPHERIC CORR
                                                            END OF HEADER
C33 2021 01 03 07 00 00-0.897633726709E-03-0.168256519828E-10 0.000000000000E+00
     0.100000000000E+01-0.128765625000E+03 0.353264714893E-08-0.101452629585E+01
    -0.630132853985E-05 0.239490647800E-03 0.101686455309E-04 0.528263452339E+04
     0.252000000000E+05 0.256113708019E-07 0.459977936613E+00-0.377185642719E-07
     0.963944355489E+00 0.158937500000E+03-0.527770416213E-01-0.666742058197E-08
    -0.782175437889E-10 0.000000000000E+00 0.783000000000E+03 0.000000000000E+00
     0.200000000000E+01 0.000000000000E+00-0.425000000000E-07-0.425000000000E-07
     0.252000000000E+05 0.100000000000E+01
C34 2021 01 03 07 00 00-0.771809136495E-03 0.865441052156E-11 0.000000000000E+00
     0.100000000000E+01 0.126125000000E+03 0.379015787529E-08 0.166669684624E+01
     0.621844083071E-05 0.455542933196E-03 0.615511089563E-05 0.528262765884E+04
     0.252000000000E+05 0.270083546638E-07-0.164144268308E+01 0.293366611004E-07
     0.963319945479E+00 0.236171875000E+03 0.125776396303E+00-0.700850621813E-08
     0.320370487574E-09 0.160000000000E+02 0.783000000000E+03 0.000000000000E+00
     0.200000000000E+01 0.000000000000E+00-0.630000000000E-08-0.630000000000E-08
     0.252000000000E+05 0.100000000000E+01
C35 2021 01 03 07 00 00-0.483463169076E-03 0.177804437840E-10 0.000000000000E+00
     0.100000000000E+01 0.138015625000E+03 0.384015995808E-08-0.280734259999E+01
     0.679632648826E-05 0.657896976918E-03 0.525591894984E-05 0.528262234688E+04
     0.252000000000E+05 0.176951289177E-07-0.164157784354E+01 0.279396772385E-08
     0.963390412780E+00 0.259109375000E+03-0.905957634372E-01-0.699100548915E-08
     0.310727228751E-09 0.160000000000E+02 0.783000000000E+03 0.000000000000E+00
     0.200000000000E+01 0.000000000000E+00-0.280000000000E-08-0.280000000000E-08
     0.252000000000E+05 0.100000000000E+01
C36 2021 01 03 07 00 00-0.786693417467E-03 0.992361748331E-11 0.000000000000E+00
     0.100000000000E+01-0.510937500000E+01 0.428696428356E-08 0.132226667195E+01
    -0.135041773319E-06 0.655447249301E-03 0.569969415665E-05 0.528261056519E+04
     0.252000000000E+05 0.279396772385E-08 0.257101647464E+01-0.228174030781E-07
     0.952114943889E+00 0.240453125000E+03-0.134180489526E+01-0.701243495321E-08
    -0.216080429189E-09 0.320000000000E+02 0.783000000000E+03 0.000000000000E+00
     0.200000000000E+01 0.000000000000E+00-0.186000000000E-07-0.186000000000E-07
     0.273900000000E+05 0.100000000000E+01
C37 2021 01 03 07 00 00-0.861143344082E-03 0.102939878843E-11 0.000000000000E+00
     0.100000000000E+01-0.546875000000E+00 0.427946397114E-08 0.228836600672E+01
     0.237487256527E-07 0.663336715661E-03 0.568991526961E-05 0.528261143494E+04
     0.252000000000E+05 0.214204192162E-07 0.257085471686E+01-0.977888703346E-08
     0.952128012136E+00 0.241890625000E+03-0.724876268155E+00-0.702386400070E-08
    -0.224652214809E-09 0.160000000000E+02 0.783000000000E+03 0.000000000000E+00
     0.200000000000E+01 0.000000000000E+00-0.133000000000E-07-0.133000000000E-07
     0.252000000000E+05 0.100000000000E+01
C38 2021 01 03 07 00 00 0.121657736599E-03 0.253042031773E-11 0.000000000000E+00
     0.100000000000E+01-0.159015625000E+03 0.144506019256E-08 0.112820839729E+01
    -0.500632449985E-05 0.172507378738E-02-0.859377905726E-05 0.649308382225E+04
     0.252000000000E+05 0.334344804287E-06-0.769060449357E+00 0.132713466883E-06
     0.973669586184E+00 0.498703125000E+03-0.282716286074E+01-0.277154401736E-08
    -0.325013538118E-10 0.000000000000E+00 0.783000000000E+03 0.000000000000E+00
     0.200000000000E+01 0.000000000000E+00 0.520000000000E-08 0.520000000000E-08
     0.252000000000E+05 0.100000000000E+01
C39 2021 01 03 07 00 00 0.270330347121E-04 0.381916720471E-12 0.000000000000E+00
     0.100000000000E+01 0.104062500000E+02 0.101932817340E-08-0.682663551929E+00
     0.100582838059E-06 0.167091772892E-02 0.196392647922E-04 0.649324337578E+04
     0.252000000000E+05-0.195577740669E-07 0.128552190171E+01-0.158324837685E-06
     0.960562871551E+00-0.352390625000E+03 0.310973753342E+01-0.178971740606E-08
     0.693243162075E-09 0.160000000000E+02 0.783000000000E+03 0.000000000000E+00
     0.200000000000E+01 0.000000000000E+00 0.420000000000E-08 0.420000000000E-08
     0.252000000000E+05 0.100000000000E+01
C40 2021 01 03 07 00 00 0.117419054732E-03 0.384581255730E-11 0.000000000000E+00
     0.100000000000E+01 0.197843750000E+03 0.519307345521E-09-0.308208327028E+01
     0.661751255393E-05 0.193385733291E-02 0.204546377063E-04 0.649342630386E+04
     0.252000000000E+05-0.186730176210E-06-0.280977224213E+01 0.123865902424E-06
     0.101467670138E+01-0.362015625000E+03-0.295013370493E+01-0.161649590497E-08
    -0.684314218720E-09 0.160000000000E+02 0.783000000000E+03 0.000000000000E+00
     0.200000000000E+01 0.000000000000E+00 0.120000000000E-08 0.120000000000E-08
     0.252000000000E+05 0.100000000000E+01
